title,category,type,medium,frame,photo_url_link,artist,site,street_address,city,zip_code,state,latitude,longitude
SOLE PARK,SCULPTURE,RELIEF,STONE,False,UNKNOWN,UNKNOWN,PAT SOLE PARK,BUSTI AVE & NIAGARA ST,BUFFALO,14213,NY,42.907321,-78.899787
BUFFALO STREET MAP,GRAPHIC ARTS,MAP,PARCHMENT,True,UNKNOWN,SMITH BROTHERS COMPANY,502 CITY HALL,65 NIAGARA SQUARE,BUFFALO,14202,NY,42.886641,-78.879354
WAR  MEMORIAL STADIUM RENDERING,GRAPHIC ARTS,DRAWING,PAPER,False,UNKNOWN,UNKNOWN,6TH FLOOR CITY HALL,65 NIAGARA SQUARE,BUFFALO,14202,NY,42.886641,-78.879354
MAYOR HIRAM BARTON,PAINTINGS,PORTRAIT,OIL ON CANVAS,True,HTTP://WWW.CI.BUFFALO.NY.US/FILES/1_2_1/PUBLIC%20ART%20WEBSITE/WEB%20PAGES/HIRAM%20BARTON.HTML,UNKNOWN,201 CITY HALL,65 NIAGARA SQUARE,BUFFALO,14202,NY,42.886641,-78.879354
MAYOR ELI COOK,GRAPHICS ARTS,PORTRAIT,PASTEL ON PAPER,True,HTTP://WWW.CI.BUFFALO.NY.US/FILES/1_2_1/PUBLIC%20ART%20WEBSITE/WEB%20PAGES/ELI%20COOK.HTML,UNKNOWN,2ND FLOOR STORAGE CITY HALL,65 NIAGARA SQUARE,BUFFALO,14202,NY,42.886641,-78.879354
MAYOR ANTHONY MASIELLO,PAINTINGS,PORTRAIT,OIL ON CANVAS,True,UNKNOWN,NATHAN NAETZKER,201 CITY HALL,65 NIAGARA SQUARE,BUFFALO,14202,NY,42.886641,-78.879354
MAYOR CHANDLER J WELLS,PAINTINGS,PORTRAIT,OIL ON CANVAS,True,HTTP://WWW.CI.BUFFALO.NY.US/FILES/1_2_1/PUBLIC%20ART%20WEBSITE/WEB%20PAGES/CHANDLER%20WELLS.HTML,ALVAH BRADISH,2ND FLOOR STORAGE CITY HALL,65 NIAGARA SQUARE,BUFFALO,14202,NY,42.886641,-78.879354
MCMILLAN FOUNTAIN,DECORATIVE OBJECTS,FOUNTAIN,GRANITE,False,HTTP://WWW.CI.BUFFALO.NY.US/FILES/1_2_1/PUBLIC%20ART%20WEBSITE/WEB%20PAGES/MCMILLAN%20FOUNTAIN.HTML,UNKNOWN,DELAWARE PARK,MEADOW DRIVE,BUFFALO,14216,NY,42.933718,-78.872928
SESQUICENTENNIAL TIME CAPSULE,DECORATIVE OBJECTS,TIME CAPSULE,MIXED MEDIA IN GRANITE,False,HTTP://WWW.CITY-BUFFALO.COM/FILES/1_2_1/PUBLIC%20ART%20WEBSITE/WEB%20PAGES/SESQUICENTENNIAL%20TIME%20CAPSULE.HTML,UNKNOWN,BUFFALO CITY COURT BUILDING,50 DELAWARE AVE,BUFFALO,14202,NY,42.885709,-78.87959
ISOCHRONIC MOUNTAIN BUFFALO,SCULPTURE,FIGURATIVE,CERAMIC,False,UNKNOWN,JOSHUA G STEIN,28TH FLOOR CITY HALL,65 NIAGARA SQUARE,BUFFALO,14202,NY,42.886641,-78.879354
BAROMETER,DECORATIVE OBJECTS,BAROMETER,WOOD AND GLASS,False,UNKNOWN,J HULLEMERURCH,502 CITY HALL,65 NIAGARA SQUARE,BUFFALO,14202,NY,42.886641,-78.879354
WWII VETERANS MEMORIAL,SCULPTURE,RELIEF,GRANITE,False,HTTP://WWW.CITY-BUFFALO.COM/FILES/1_2_1/PUBLIC%20ART%20WEBSITE/WEB%20PAGES/WWII%20VETERANS%20MEMORIAL.HTML,UNKNOWN,HOUGHTON-STACHOWSKI PARK,CLINTON ST,BUFFALO,14206,NY,42.871691,-78.813918
CITY HALL FRIEZE WEST,SCULPTURE,RELIEF,STONE,False,HTTP://WWW.CITY-BUFFALO.COM/FILES/1_2_1/PUBLIC%20ART%20WEBSITE/WEB%20PAGES/CITY%20HALL%20FRIEZE%20WEST.HTML,ALBERT STEWART,CITY HALL,65 NIAGARA SQUARE,BUFFALO,14202,NY,42.886641,-78.879354
JESSE CLIPPER MEMORIAL,SCULPTURE,RELIEF,GRANITE,False,HTTP://WWW.CITY-BUFFALO.COM/FILES/1_2_1/PUBLIC%20ART%20WEBSITE/WEB%20PAGES/JESSE%20CLIPPER%20MEMORIAL.HTML,UNKNOWN,WILLERT PARK,MICHIGAN AVE,BUFFALO,14203,NY,42.884904,-78.867877
CITY SEAL,DECORATIVE OBJECTS,PLAQUE,BRONZE ON WOOD,False,UNKNOWN,UNKNOWN,201 CITY HALL,65 NIAGARA SQUARE,BUFFALO,14202,NY,42.886641,-78.879354
CIVIL WAR CANNONS,DECORATIVE OBJECTS,CANNONS,CAST IRON,False,HTTP://WWW.CI.BUFFALO.NY.US/FILES/1_2_1/PUBLIC%20ART%20WEBSITE/WEB%20PAGES/CIVIL%20WAR%20CANNONS.HTML,UNKNOWN,DELAWARE LABOR CENTER,17 MEADOWVIEW PLACE,BUFFALO,14214,NY,39.615782,-75.750487
WORLD WAR II EAGLE,SCULPTURE,FIGURATIVE,BRONZE,False,HTTP://WWW.CITY-BUFFALO.COM/FILES/1_2_1/PUBLIC%20ART%20WEBSITE/WEB%20PAGES/WWII%20EAGLE.HTML,J BIANCHI AND SON INCORPORATED,STREET TRIANGLE MEDIAN,W MOHAWK ST & S ELMWOOD AVE,BUFFALO,14202,NY,42.88805,-78.879472
PRESIDENT GROVER CLEVELAND,SCULPTURE,BUST,WHITE MARBLE BUST ON POLISHED WHITE MARBLE BASE WITH BRONZE PLAQUE,False,HTTP://WWW.CI.BUFFALO.NY.US/FILES/1_2_1/PUBLIC%20ART%20WEBSITE/WEB%20PAGES/CLEVELAND%20BUST.HTML,UNKNOWN,1ST FLOOR CITY HALL,65 NIAGARA SQUARE,BUFFALO,14202,NY,42.886641,-78.879354
MAYOR LOUIS P FUHRMANN,PAINTINGS,PORTRAIT,OIL ON CANVAS,True,HTTP://WWW.CI.BUFFALO.NY.US/FILES/1_2_1/PUBLIC%20ART%20WEBSITE/WEB%20PAGES/LOUIS%20FUHRMANN.HTML,OTTO H SCHNEIDER,201 CITY HALL,65 NIAGARA SQUARE,BUFFALO,14202,NY,42.886641,-78.879354
DELAWARE PARK PLAQUE I,DECORATIVE OBJECTS,PLAQUE,BRONZE,False,HTTP://WWW.CITY-BUFFALO.COM/FILES/1_2_1/PUBLIC%20ART%20WEBSITE/WEB%20PAGES/DELAWARE%20PARK%20I.HTML,UNKNOWN,DELAWARE PARK,MEADOW DRIVE,BUFFALO,14216,NY,42.933451,-78.869458
KEEPERS OF THE WESTERN DOOR,DECORATIVE OBJECTS,PLAQUE,LIMESTONE BRONZE,False,HTTP://WWW.CITY-BUFFALO.COM/FILES/1_2_1/PUBLIC%20ART%20WEBSITE/WEB%20PAGES/KEEPERS%20OF%20THE%20WESTERN%20DOOR.HTML,KENNETH PAYNE,ERIE BASIN MARINA,329 ERIE ST,BUFFALO,14202,NY,42.884454,-78.890315
JOHNSON PARK,DECORATIVE OBJECTS,PLAQUE,BRONZE,False,HTTP://WWW.CITY-BUFFALO.COM/FILES/1_2_1/PUBLIC%20ART%20WEBSITE/WEB%20PAGES/JOHNSON%20PARK%20PLAQUE.HTML,UNKNOWN,JOHNSON PARK,JOHNSON PARK,BUFFALO,14201,NY,42.892726,-78.878924
AMERICAN AND CANADIAN FLAG,DECORATIVE OBJECTS,PLAQUE,BRONZE,False,HTTP://WWW.CITY-BUFFALO.COM/FILES/1_2_1/PUBLIC%20ART%20WEBSITE/WEB%20PAGES/AMERICAN-CANADIAN%20FLAG%20PLAQUE.HTML,UNKNOWN,NIAGARA SQUARE,NIAGARA SQUARE,BUFFALO,14202,NY,42.886627,-78.878551
MAYOR EDGAR B JEWETT,PAINTINGS,PORTRAIT,OIL ON CANVAS,True,HTTP://WWW.CI.BUFFALO.NY.US/FILES/1_2_1/PUBLIC%20ART%20WEBSITE/WEB%20PAGES/EDGAR%20JEWETT.HTML,RAPHAEL BECK,201 CITY HALL,65 NIAGARA SQUARE,BUFFALO,14202,NY,42.886641,-78.879354
EDEN,SCULPTURE,FIGURATIVE,BRONZE SCULPTURE,False,UNKNOWN,JUDITH SHEA,STREET TRIANGLE MEDIAN,ELMWOOD AVE & BIDWELL AVE,BUFFALO,14222,NY,42.924102,-78.876858
MAYOR BERNARD J DOWD,PAINTINGS,PORTRAIT,OIL ON CANVAS,True,HTTP://WWW.CI.BUFFALO.NY.US/FILES/1_2_1/PUBLIC%20ART%20WEBSITE/WEB%20PAGES/BERNARD%20DOWD.HTML,UNKNOWN,201 CITY HALL,65 NIAGARA SQUARE,BUFFALO,14202,NY,42.886641,-78.879354
SISTER CITIES GIFTS,DECORATIVE OBJECTS,VARIOUS,MIXED MEDIA,False,UNKNOWN,UNKNOWN,201 CITY HALL,65 NIAGARA SQUARE,BUFFALO,14202,NY,42.886641,-78.879354
MAYOR JAMES D GRIFFIN,PAINTINGS,PORTRAIT,OIL ON CANVAS,True,HTTP://WWW.CI.BUFFALO.NY.US/FILES/1_2_1/PUBLIC%20ART%20WEBSITE/WEB%20PAGES/JAMES%20GRIFFIN.HTML,MARY SMITH,201 CITY HALL,65 NIAGARA SQUARE,BUFFALO,14202,NY,42.886641,-78.879354
CITY SCENE,PAINTINGS,ABSTRACT,MIXED MEDIA,True,HTTP://WWW.CI.BUFFALO.NY.US/FILES/1_2_1/PUBLIC%20ART%20WEBSITE/WEB%20PAGES/CITY%20SCENE.HTML,JAMES G PAPPAS,1417 CITY HALL,65 NIAGARA SQUARE,BUFFALO,14202,NY,42.886641,-78.879354
FOUR FREEDOMS MEMORIAL,SCULPTURE,RELIEF,STONE,False,HTTP://WWW.CITY-BUFFALO.COM/FILES/1_2_1/PUBLIC%20ART%20WEBSITE/WEB%20PAGES/FOUR%20FREEDOMS.HTML,UNKNOWN,MARTIN LUTHER KING JR. PARK,FILLMORE AVE,BUFFALO,14211,NY,42.904977,-78.839682
CAZENOVIA PARK FIREMEN'S MEMORIAL,SCULPTURE,FIGURATIVE,GRANITE,False,HTTP://WWW.CITY-BUFFALO.COM/FILES/1_2_1/PUBLIC%20ART%20WEBSITE/WEB%20PAGES/CAZENOVIA%20PARK%20FIREMEN'S%20MEMORIAL.HTML,UNKNOWN,CAZENOVIA PARK,REDJACKET PKWY,BUFFALO,14220,NY,42.846737,-78.810073
COUNCIL PRESIDENT DELMAR MITCHELL,PAINTINGS,PORTRAIT,OIL ON CANVAS,True,HTTP://WWW.CI.BUFFALO.NY.US/FILES/1_2_1/PUBLIC%20ART%20WEBSITE/WEB%20PAGES/DELMAR%20MITCHELL.HTML,JOAN HARASTY,COUNCIL CHAMBER CITY HALL,65 NIAGARA SQUARE,BUFFALO,14202,NY,42.886641,-78.879354
BIRDS EXCITED INTO FLIGHT,SCULPTURE,FIGURATIVE,COLD ROLLED STEEL,False,HTTP://WWW.CITY-BUFFALO.COM/FILES/1_2_1/PUBLIC%20ART%20WEBSITE/WEB%20PAGES/BIRDS.HTML,LARRY W GRIFFIS JR,STREET MEDIAN,BIDWELL PKWY,BUFFALO,14222,NY,42.923861,-78.876438
BISON,SCULPTURE,FIGURATIVE,BRONZE,False,HTTP://WWW.CITY-BUFFALO.COM/FILES/1_2_1/PUBLIC%20ART%20WEBSITE/WEB%20PAGES/BISON.HTML,CECILIA EVANS TAYLOR,FIVE FLAGS PARK,S DIVISION ST,BUFFALO,14203,NY,42.883027,-78.874999
FREDERIC CHOPIN,SCULPTURE,BUST,BRONZE,False,HTTP://WWW.CI.BUFFALO.NY.US/FILES/1_2_1/PUBLIC%20ART%20WEBSITE/WEB%20PAGES/CHOPIN.HTML,JOSEPH C MAZUR,PORTER AVE,PORTER AVE & RICHMOND AVE,BUFFALO,14201,NY,42.902439,-78.882941
SOUTH BUFFALO,PAINTINGS,ABSTRACT,WATERCOLOR ON PAPER,True,HTTP://WWW.CI.BUFFALO.NY.US/FILES/1_2_1/PUBLIC%20ART%20WEBSITE/WEB%20PAGES/SOUTH%20BUFFALO.HTML,DAVID PRATT,1417 CITY HALL,65 NIAGARA SQUARE,BUFFALO,14202,NY,42.886641,-78.879354
MAYOR GEORGE W CLINTON,PAINTINGS,PORTRAIT,OIL ON CANVAS,True,HTTP://WWW.CI.BUFFALO.NY.US/FILES/1_2_1/PUBLIC%20ART%20WEBSITE/WEB%20PAGES/GEORGE%20CLINTON.HTML,L G SELLSTEDT,201 CITY HALL,65 NIAGARA SQUARE,BUFFALO,14202,NY,42.886641,-78.879354
URBAN BUILDING RENDERING,GRAPHIC ARTS,DRAWING,PAPER,False,UNKNOWN,UNKNOWN,6TH FLOOR CITY HALL,65 NIAGARA SQUARE,BUFFALO,14202,NY,42.886641,-78.879354
JOHN MAYNARD,DECORATIVE OBJECTS,PLAQUE,BRONZE,False,HTTP://WWW.CITY-BUFFALO.COM/FILES/1_2_1/PUBLIC%20ART%20WEBSITE/WEB%20PAGES/JOHN%20MAYNARD%20PLAQUE.HTML,ERICA L DODRES AND JEFF SLOMBA,ERIE BASIN MARINA,330 ERIE ST,BUFFALO,14202,NY,42.884454,-78.890315
PRESIDENT MILLARD FILLMORE,PAINTINGS,PORTRAIT,OIL ON CANVAS,True,HTTP://WWW.CI.BUFFALO.NY.US/FILES/1_2_1/PUBLIC%20ART%20WEBSITE/WEB%20PAGES/MILLARD%20FILLMORE.HTML,EDWARD REIGEL,201 CITY HALL,65 NIAGARA SQUARE,BUFFALO,14202,NY,42.886641,-78.879354
MAYOR THOMAS L HOLLING,PAINTINGS,PORTRAIT,OIL ON CANVAS,True,HTTP://WWW.CI.BUFFALO.NY.US/FILES/1_2_1/PUBLIC%20ART%20WEBSITE/WEB%20PAGES/THOMAS%20HOLLING.HTML,B GORDON,2ND FLOOR STORAGE CITY HALL,65 NIAGARA SQUARE,BUFFALO,14202,NY,42.886641,-78.879354
TALENTS DIVERSIFIED FIND VENT IN MYRIAD FORM,PAINTINGS,MURAL,OIL ON CANVAS WITH PLASTER RELIEF,False,HTTP://WWW.CI.BUFFALO.NY.US/FILES/1_2_1/PUBLIC%20ART%20WEBSITE/WEB%20PAGES/TALENTS%20DIVERSIFIED%20FIND%20VENT%20IN%20MYRIAD%20FORM.HTML,WILLIAM DE LEFTWICH DODGE,1ST FLOOR CITY HALL,65 NIAGARA SQUARE,BUFFALO,14202,NY,42.886641,-78.879354
WESTERN NEW YORK VIETNAM VETERANS MEMORIAL,SCULPTURE,RELIEF,GRANITE,False,HTTP://WWW.CITY-BUFFALO.COM/FILES/1_2_1/PUBLIC%20ART%20WEBSITE/WEB%20PAGES/WNY%20VIETNAM%20VETERANS%20MEMORIAL.HTML,SIRIANNI,BUFFALO AND ERIE COUNTY NAVAL & MILITARY PARK,1 NAVAL PARK COVE,BUFFALO,14202,NY,42.878077,-78.880826
GATES CIRCLE URNS,DECORATIVE OBJECTS,URN,BRONZE,False,HTTP://WWW.CI.BUFFALO.NY.US/FILES/1_2_1/PUBLIC%20ART%20WEBSITE/WEB%20PAGES/GATES%20CIRCLE%20URNS.HTML,UNKNOWN,GATES CIRCLE,DELAWARE AVE & LAFAYETTE AVE,BUFFALO,14209,NY,42.920335,-78.868002
BLACK ROCK HARBOR,DECORATIVE OBJECTS,PLAQUE,BRONZE,False,HTTP://WWW.CITY-BUFFALO.COM/FILES/1_2_1/PUBLIC%20ART%20WEBSITE/WEB%20PAGES/BLACK%20ROCK%20HARBOR%20PLAQUE.HTML,UNKNOWN,MARKET SQUARE,AMHERST ST & NIAGARA ST,BUFFALO,14207,NY,42.934465,-78.901991
KOREAN WAR MEMORIAL,SCULPTURE,RELIEF,GRANITE,False,HTTP://WWW.CITY-BUFFALO.COM/FILES/1_2_1/PUBLIC%20ART%20WEBSITE/WEB%20PAGES/KOREAN%20WAR%20MEMORIAL.HTML,RALPH SIRIANNI,BUFFALO AND ERIE COUNTY NAVAL & MILITARY PARK,1 NAVAL PARK COVE,BUFFALO,14202,NY,42.878077,-78.880826
GEORGE WASHINGTON,DECORATIVE OBJECTS,PLAQUE,BRONZE ON BOULDER,False,HTTP://WWW.CITY-BUFFALO.COM/FILES/1_2_1/PUBLIC%20ART%20WEBSITE/WEB%20PAGES/GEORGE%20WASHINGTON%20TREE%20PLAQUE.HTML,UNKNOWN,BUFFALO HISTORY MUSEUM,1 MUSEUM COURT,BUFFALO,14216,NY,42.935415,-78.87627
JOHN BOECHAT MEMORIAL,SCULPTURE,RELIEF,DEER ISLE GRANITE,False,HTTP://WWW.CITY-BUFFALO.COM/FILES/1_2_1/PUBLIC%20ART%20WEBSITE/WEB%20PAGES/BOECHAT%20MEMORIAL.HTML,UNKNOWN,COLONIAL CIRCLE,BIDWELL PKWY,BUFFALO,14222,NY,42.920769,-78.881047
ANDREW ADAMS,PAINTINGS,PORTRAIT,OIL ON CANVAS,True,UNKNOWN,UNKNOWN,321 CITY HALL,65 NIAGARA SQUARE,BUFFALO,14202,NY,42.886641,-78.879354
SPIRIT OF WOMANHOOD,SCULPTURE,FIGURATIVE,BRONZE,False,HTTP://WWW.CITY-BUFFALO.COM/FILES/1_2_1/PUBLIC%20ART%20WEBSITE/WEB%20PAGES/SPIRIT%20OF%20WOMANHOOD.HTML,LARRY W GRIFFIS JR,DELAWARE PARK,MEADOW DRIVE,BUFFALO,14216,NY,42.935624,-78.875722
MAYOR SOLOMON G HAVEN,PAINTINGS,PORTRAIT,OIL ON CANVAS,True,HTTP://WWW.CI.BUFFALO.NY.US/FILES/1_2_1/PUBLIC%20ART%20WEBSITE/WEB%20PAGES/SOLOMON%20HAVEN.HTML,L G SELLSTEDT,201 CITY HALL,65 NIAGARA SQUARE,BUFFALO,14202,NY,42.886641,-78.879354
COUNCIL PRESIDENT KNEELAND B WILKES,PAINTINGS,PORTRAIT,OIL ON CANVAS,True,HTTP://WWW.CI.BUFFALO.NY.US/FILES/1_2_1/PUBLIC%20ART%20WEBSITE/WEB%20PAGES/KNEELAND%20WILKES.HTML,J C MAZUR,COUNCIL CHAMBER CITY HALL,65 NIAGARA SQUARE,BUFFALO,14202,NY,42.886641,-78.879354
COUNCIL PRESIDENT PETER J CROTTY,PAINTINGS,PORTRAIT,OIL ON CANVAS,True,HTTP://WWW.CI.BUFFALO.NY.US/FILES/1_2_1/PUBLIC%20ART%20WEBSITE/WEB%20PAGES/PETER%20CROTTY.HTML,VIRGINIA TILLOU,COUNCIL CHAMBER CITY HALL,65 NIAGARA SQUARE,BUFFALO,14202,NY,42.886641,-78.879354
PRESIDENT GROVER CLEVELAND,SCULPTURE,FIGURATIVE,BRONZE AND GRANITE,False,HTTP://WWW.CITY-BUFFALO.COM/FILES/1_2_1/PUBLIC%20ART%20WEBSITE/WEB%20PAGES/CLEVELAND.HTML,BRYANT BAKER,CITY HALL,65 NIAGARA SQUARE,BUFFALO,14202,NY,42.886641,-78.879354
BUFFALO STREET MAP,GRAPHICS,MAP,CLOTH MAP IN WOOD  CASE,True,UNKNOWN,UNKNOWN,1ST FLOOR CITY HALL,65 NIAGARA SQUARE,BUFFALO,14202,NY,42.886641,-78.879354
MAYOR HENRY K SMITH,PAINTINGS,PORTRAIT,OIL ON CANVAS,True,HTTP://WWW.CI.BUFFALO.NY.US/FILES/1_2_1/PUBLIC%20ART%20WEBSITE/WEB%20PAGES/HENRY%20SMITH.HTML,UNKNOWN,2ND FLOOR STORAGE CITY HALL,65 NIAGARA SQUARE,BUFFALO,14202,NY,42.886641,-78.879354
CHARLES R TURNER,DECORATIVE OBJECTS,PLAQUE,BRONZE,False,HTTP://WWW.CITY-BUFFALO.COM/FILES/1_2_1/PUBLIC%20ART%20WEBSITE/WEB%20PAGES/CHARLES%20R.%20TURNER%20PLAQUE.HTML,UNKNOWN,TURNER PARKING RAMP,1 PERKINS DR,BUFFALO,14202,NY,42.885914,-78.879544
HISTORIC BLUE PRINTS,GRAPHIC ARTS,BLUE PRINTS,PAPER,False,UNKNOWN,UNKNOWN,1308 CITY HALL,65 NIAGARA SQUARE,BUFFALO,14202,NY,42.886641,-78.879354
MAYOR SHELDON THOMPSON,PAINTINGS,PORTRAIT,OIL ON CANVAS,True,HTTP://WWW.CI.BUFFALO.NY.US/FILES/1_2_1/PUBLIC%20ART%20WEBSITE/WEB%20PAGES/SHELDON%20THOMPSON.HTML,UNKNOWN,201 CITY HALL,65 NIAGARA SQUARE,BUFFALO,14202,NY,42.886641,-78.879354
PRESIDENT MILLARD FILLMORE,SCULPTURE,FIGURATIVE,BRONZE AND GRANITE,False,HTTP://WWW.CITY-BUFFALO.COM/FILES/1_2_1/PUBLIC%20ART%20WEBSITE/WEB%20PAGES/FILLMORE.HTML,BRYANT BAKER,CITY HALL,65 NIAGARA SQUARE,BUFFALO,14202,NY,42.886641,-78.879354
ANTIQUE CLOCK,DECORATIVE OBJECTS,ANTIQUE CLOCK,MIXED MEDIA,False,UNKNOWN,UNKNOWN,502 CITY HALL,65 NIAGARA SQUARE,BUFFALO,14202,NY,42.886641,-78.879354
SAMUEL MANNING WELCH,SCULPTURE,FIGURATIVE,BRONZE,False,HTTP://WWW.CITY-BUFFALO.COM/FILES/1_2_1/PUBLIC%20ART%20WEBSITE/WEB%20PAGES/WELCH.HTML,EUGENE MORAHAN,STREET TRIANGLE MEDIAN,JERGE DR & S ELMWOOD AVENUE,BUFFALO,14202,NY,42.887345,-78.879287
MAYOR EBENEZER JOHNSON,PAINTINGS,PORTRAIT,OIL ON CANVAS,True,HTTP://WWW.CI.BUFFALO.NY.US/FILES/1_2_1/PUBLIC%20ART%20WEBSITE/WEB%20PAGES/EBENEZER%20JOHNSON.HTML,JAMES JACKSON,201 CITY HALL,65 NIAGARA SQUARE,BUFFALO,14202,NY,42.886641,-78.879354
FIREMAN'S MONUMENT,SCULPTURE,FIGURATIVE,WHITE MARBLE,False,HTTP://WWW.CITY-BUFFALO.COM/FILES/1_2_1/PUBLIC%20ART%20WEBSITE/WEB%20PAGES/FIREMAN'S%20MONUMENT.HTML,WILLIAM LAUTZ,BUFFALO FIRE STATION HEADQUARTERS,195 COURT ST,BUFFALO,14202,NY,42.887398,-78.880849
PROTECTION,PAINTINGS,LUNETTE MURAL,OIL ON CANVAS WITH PLASTER RELIEF,False,HTTP://WWW.CI.BUFFALO.NY.US/FILES/1_2_1/PUBLIC%20ART%20WEBSITE/WEB%20PAGES/PROTECTION.HTML,WILLIAM DE LEFTWICH DODGE,1ST FLOOR CITY HALL,65 NIAGARA SQUARE,BUFFALO,14202,NY,42.886641,-78.879354
MAYOR CHARLES E ROESCH,PAINTINGS,PORTRAIT,OIL ON CANVAS,True,HTTP://WWW.CI.BUFFALO.NY.US/FILES/1_2_1/PUBLIC%20ART%20WEBSITE/WEB%20PAGES/CHARLES%20ROESCH.HTML,EDWARD RIEGEL,201 CITY HALL,65 NIAGARA SQUARE,BUFFALO,14202,NY,42.886641,-78.879354
CHIEF RED JACKET,SCULPTURE,FIGURATIVE,BRONZE,False,HTTP://WWW.CITY-BUFFALO.COM/FILES/1_2_1/PUBLIC%20ART%20WEBSITE/WEB%20PAGES/RED%20JACKET.HTML,BUREAU BROTHERS,FOREST LAWN CEMETERY,1411 DELAWARE AVE,BUFFALO,14209,NY,42.926944,-78.861172
MAYOR CHARLES F BISHOP,PAINTINGS,PORTRAIT,OIL ON CANVAS,True,HTTP://WWW.CI.BUFFALO.NY.US/FILES/1_2_1/PUBLIC%20ART%20WEBSITE/WEB%20PAGES/CHARLES%20BISHOP.HTML,J P SELINGER,2ND FLOOR STORAGE CITY HALL,65 NIAGARA SQUARE,BUFFALO,14202,NY,42.886641,-78.879354
VETERANS OF WWII MEMORIAL,SCULPTURE,FIGURATIVE AND RELIEF,GRANITE,False,HTTP://WWW.CITY-BUFFALO.COM/FILES/1_2_1/PUBLIC%20ART%20WEBSITE/WEB%20PAGES/VETERANS%20WWII%20MEMORIAL.HTML,UNKNOWN,RIVERSIDE PARK,2607 NIAGARA ST,BUFFALO,14207,NY,42.955957,-78.910804
PROPOSED CITY HALL RENDERING,GRAPHIC ARTS,DRAWING,PAPER,True,UNKNOWN,UNKNOWN,6TH FLOOR CITY HALL,65 NIAGARA SQUARE,BUFFALO,14202,NY,42.886641,-78.879354
DAYS PARK FOUNTAIN,DECORATIVE OBJECTS,FOUNTAIN,METAL AND CONCRETE,False,HTTP://WWW.CI.BUFFALO.NY.US/FILES/1_2_1/PUBLIC%20ART%20WEBSITE/WEB%20PAGES/DAYS%20PARK%20FOUNTAIN.HTML,UNKNOWN,DAYS PARK,DAYS PARK,BUFFALO,14201,NY,42.898328,-78.881986
100TH VOLUNTEER INFANTRY CIVIL WAR MEMORIAL,DECORATIVE OBJECTS,PLAQUE,BRONZE,False,HTTP://WWW.CITY-BUFFALO.COM/FILES/1_2_1/PUBLIC%20ART%20WEBSITE/WEB%20PAGES/100TH%20NY%20VOLUNTEER%20INFANTRY%20CIVIL%20WAR%20MEMORIAL.HTML,UNKNOWN,FRONT PARK,BUSTI AVE,BUFFALO,14213,NY,42.902176,-78.89826
PAVING RECORD 1894 - 1907,GRAPHIC ARTS,BOOK,CLOTH BINDER AND PAPER,False,UNKNOWN,UNKNOWN,2001 CITY HALL,65 NIAGARA SQUARE,BUFFALO,14202,NY,42.886641,-78.879354
BUFFALO ZOO RENDERING,GRAPHIC ARTS,DRAWING,PAPER,False,UNKNOWN,UNKNOWN,6TH FLOOR CITY HALL,65 NIAGARA SQUARE,BUFFALO,14202,NY,42.886641,-78.879354
WILLIAM MCKINLEY MARKER,DECORATIVE OBJECTS,PLAQUE,BRONZE AND BOULDER,False,HTTP://WWW.CITY-BUFFALO.COM/FILES/1_2_1/PUBLIC%20ART%20WEBSITE/WEB%20PAGES/MCKINLEY%20MARKER.HTML,UNKNOWN,STREET MEDIAN,30 FORDHAM DR,BUFFALO,14216,NY,42.938667,-78.874943
MAYOR WILLIAM G FARGO,PAINTINGS,PORTRAIT,OIL ON CANVAS,True,HTTP://WWW.CI.BUFFALO.NY.US/FILES/1_2_1/PUBLIC%20ART%20WEBSITE/WEB%20PAGES/WILLIAM%20FARGO.HTML,UNKNOWN,201 CITY HALL,65 NIAGARA SQUARE,BUFFALO,14202,NY,42.886641,-78.879354
HENRY J NOWAK,DECORATIVE OBJECTS,PLAQUE,BRONZE AND CONCRETE,False,HTTP://WWW.CITY-BUFFALO.COM/FILES/1_2_1/PUBLIC%20ART%20WEBSITE/WEB%20PAGES/HENRY%20J.%20NOWAK%20PLAQUE.HTML,UNKNOWN,BRODERICK PARK,1170 NIAGARA ST,BUFFALO,14213,NY,42.915204,-78.902972
FIREMAN'S FOUNTAIN,DECORATIVE OBJECTS,FOUNTAIN,GRANITE  AND MIXED MEDIA,False,UNKNOWN,UNKNOWN,FIREMAN'S PARK,S DIVISION ST,BUFFALO,14203,NY,42.882788,-78.873695
BUFFALO SKYLINE,PHOTOGRAPHY,PHOTOGRAPH,PHOTOGRAPHIC IMAGE,True,HTTP://WWW.CI.BUFFALO.NY.US/FILES/1_2_1/PUBLIC%20ART%20WEBSITE/WEB%20PAGES/BUFFALO%20SKYLINE.HTML,DONNA JORDAN DUSEL,1417 CITY HALL,65 NIAGARA SQUARE,BUFFALO,14202,NY,42.886641,-78.879354
MAYOR JOHN B MANNING,PAINTINGS,PORTRAIT,OIL ON CANVAS,True,HTTP://WWW.CI.BUFFALO.NY.US/FILES/1_2_1/PUBLIC%20ART%20WEBSITE/WEB%20PAGES/JOHN%20MANNING.HTML,J C ROTHER,201 CITY HALL,65 NIAGARA SQUARE,BUFFALO,14202,NY,42.886641,-78.879354
VIETNAM VETERANS MEMORIAL,SCULPTURE,RELIEF,GRANITE,False,HTTP://WWW.CITY-BUFFALO.COM/FILES/1_2_1/PUBLIC%20ART%20WEBSITE/WEB%20PAGES/VIETNAM%20VETERANS%20MEMORIAL.HTML,HENRY GORKO AND LEANORD SZYMANSKI,HOUGHTON-STACHOWSKI PARK,CLINTON ST,BUFFALO,14206,NY,42.871691,-78.813918
THE THREE GRACES,SCULPTURE,FIGURATIVE,BRONZE,False,HTTP://WWW.CITY-BUFFALO.COM/FILES/1_2_1/PUBLIC%20ART%20WEBSITE/WEB%20PAGES/THREE%20GRACES.HTML,CHARLES CARY RUMSEY,FOREST LAWN CEMETERY,1411 DELAWARE AVE,BUFFALO,14209,NY,42.926944,-78.861172
BRONZE TILE PROJECT,DECORATIVE OBJECTS,PLAQUES,BRONZE,False,HTTP://WWW.CI.BUFFALO.NY.US/FILES/1_2_1/PUBLIC%20ART%20WEBSITE/WEB%20PAGES/BENNET-MONTESSORI.HTML,ROBERLEY BELL AND BENNETT HIGH MONTESSORI CENTER STUDENTS,CATHEDRAL PARK,ERIE STREET,BUFFALO,14202,NY,42.882593,-78.876057
COUNCIL PRESIDENT CHESTER C GORSKI,PAINTINGS,PORTRAIT,OIL ON MASONITE,True,HTTP://WWW.CI.BUFFALO.NY.US/FILES/1_2_1/PUBLIC%20ART%20WEBSITE/WEB%20PAGES/CHESTER%20GORSKI.HTML,W GARVER,COUNCIL CHAMBER CITY HALL,65 NIAGARA SQUARE,BUFFALO,14202,NY,42.886641,-78.879354
MAYOR LOUIS P DAYTON,PAINTINGS,PORTRAIT,OIL ON CANVAS,True,HTTP://WWW.CI.BUFFALO.NY.US/FILES/1_2_1/PUBLIC%20ART%20WEBSITE/WEB%20PAGES/LOUIS%20DAYTON.HTML,L G SELLSTEDT,2ND FLOOR STORAGE CITY HALL,65 NIAGARA SQUARE,BUFFALO,14202,NY,42.886641,-78.879354
FREEDOM MEMORIAL,SCULPTURE,FIGURATIVE AND RELIEF,GRANITE AND BRONZE,False,UNKNOWN,UNKNOWN,STREET CORNER SE,GRIDER ST & NORTHLAND AVE,BUFFALO,14211,NY,42.918798,-78.829261
MARINE CORPS WWII MEMORIAL,SCULPTURE,RELIEF,GRANITE,False,HTTP://WWW.CITY-BUFFALO.COM/FILES/1_2_1/PUBLIC%20ART%20WEBSITE/WEB%20PAGES/MARINE%20CORPS%20WWII%20MEMORIAL.HTML,LEON KOMM AND SON MONUMENT COMPANY,BUFFALO AND ERIE COUNTY NAVAL & MILITARY PARK,1 NAVAL PARK COVE,BUFFALO,14202,NY,42.878077,-78.880826
CITY HALL SEAL,DECORATIVE OBJECTS,PLAQUE,BRONZE,False,UNKNOWN,UNKNOWN,6TH FLOOR CITY HALL,65 NIAGARA SQUARE,BUFFALO,14202,NY,42.886641,-78.879354
EMPIRE STATE GAMES TRIBUTE MEMORIAL,SCULPTURE,RELIEF,STONE,False,HTTP://WWW.CITY-BUFFALO.COM/FILES/1_2_1/PUBLIC%20ART%20WEBSITE/WEB%20PAGES/EMPIRE%20STATE%20GAMES%20TRIBUTE.HTML,UNKNOWN,JIMMY GRIFFIN PLAZA,SWAN ST & WASHINGTON ST,BUFFALO,14203,NY,42.879913,-78.876115
PRESIDENT MILLARD FILLMORE,SCULPTURE,BUST,WHITE MARBLE BUST ON PAINTED GRAY WOOD BASE WITH BRONZE PLAQUE,False,HTTP://WWW.CI.BUFFALO.NY.US/FILES/1_2_1/PUBLIC%20ART%20WEBSITE/WEB%20PAGES/FILLMORE%20BUST.HTML,UNKNOWN,1ST FLOOR CITY HALL,65 NIAGARA SQUARE,BUFFALO,14202,NY,42.886641,-78.879354
COUNCIL PRESIDENT GEORGE W WANAMAKER,PAINTINGS,PORTRAIT,OIL ON CANVAS,True,HTTP://WWW.CI.BUFFALO.NY.US/FILES/1_2_1/PUBLIC%20ART%20WEBSITE/WEB%20PAGES/GEORGE%20WANAMAKER.HTML,EDWARD REIGEL,COUNCIL CHAMBER CITY HALL,65 NIAGARA SQUARE,BUFFALO,14202,NY,42.886641,-78.879354
MAYOR EBENEZER WALDEN,PAINTINGS,PORTRAIT,OIL ON CANVAS,True,HTTP://WWW.CI.BUFFALO.NY.US/FILES/1_2_1/PUBLIC%20ART%20WEBSITE/WEB%20PAGES/EBENEZER%20WALDEN.HTML,UNKNOWN,201 CITY HALL,65 NIAGARA SQUARE,BUFFALO,14202,NY,42.886641,-78.879354
COUNCIL PRESIDENT WILLIAM M EBERHARDT,PAINTINGS,PORTRAIT,OIL ON CANVAS,True,HTTP://WWW.CI.BUFFALO.NY.US/FILES/1_2_1/PUBLIC%20ART%20WEBSITE/WEB%20PAGES/WILLIAM%20EBERHARDT.HTML,EDWARD REIGEL,COUNCIL CHAMBER CITY HALL,65 NIAGARA SQUARE,BUFFALO,14202,NY,42.886641,-78.879354
MAYOR FRANKLIN A ALBERGER,PAINTINGS,PORTRAIT,OIL ON CANVAS,True,HTTP://WWW.CI.BUFFALO.NY.US/FILES/1_2_1/PUBLIC%20ART%20WEBSITE/WEB%20PAGES/FRANKLIN%20ALBERGER.HTML,UNKNOWN,2ND FLOOR STORAGE CITY HALL,65 NIAGARA SQUARE,BUFFALO,14202,NY,42.886641,-78.879354
COUNCIL PRESIDENT GEORGE K ARTHUR,PAINTINGS,PORTRAIT,OIL ON CANVAS,True,HTTP://WWW.CI.BUFFALO.NY.US/FILES/1_2_1/PUBLIC%20ART%20WEBSITE/WEB%20PAGES/GEORGE%20ARTHUR.HTML,GEORGE PALMER,COUNCIL CHAMBER CITY HALL,65 NIAGARA SQUARE,BUFFALO,14202,NY,42.886641,-78.879354
CENTAUR,SCULPTURE,FIGURATIVE,BRONZE,False,HTTP://WWW.CITY-BUFFALO.COM/FILES/1_2_1/PUBLIC%20ART%20WEBSITE/WEB%20PAGES/CENTAUR.HTML,CHARLES CARY RUMSEY,BUFFALO HISTORY MUSEUM,1 MUSEUM COURT,BUFFALO,14216,NY,42.935415,-78.87627
WAR MEMORIAL AUDITORIUM CHAIRS,DECORATIVE OBJECT,FURNITURE,WOODEN CHAIRS,False,UNKNOWN,UNKNOWN,201 CITY HALL,65 NIAGARA SQUARE,BUFFALO,14202,NY,42.886641,-78.879354
UNTITLED #2,SCULPTURE,ABSTRACT,COR-TEN STEEL,False,HTTP://WWW.CITY-BUFFALO.COM/FILES/1_2_1/PUBLIC%20ART%20WEBSITE/WEB%20PAGES/UNTITLED%202.HTML,DUAYNE HATCHETT,TONY SISTI PARK,42 NORTH ST,BUFFALO,14202,NY,42.902122,-78.871189
EAST LOVEJOY COMMUNITY WAR MEMORIAL,SCULPTURE,RELIEF,GRANITE,False,HTTP://WWW.CITY-BUFFALO.COM/FILES/1_2_1/PUBLIC%20ART%20WEBSITE/WEB%20PAGES/EAST%20LOVEJOY%20COMMUNITY%20WAR%20MEMORIAL.HTML,UNKNOWN,HENNEPIN PARK,BAILEY AVE,BUFFALO,14206,NY,42.887628,-78.813951
MAYOR FRANK X SCHWAB,SCULPTURE,BUST,WHITE MARBLE BUST ON FAUX MARBLE,False,HTTP://WWW.CI.BUFFALO.NY.US/FILES/1_2_1/PUBLIC%20ART%20WEBSITE/WEB%20PAGES/SCHWAB.HTML,C SORGI,1ST FLOOR CITY HALL,65 NIAGARA SQUARE,BUFFALO,14202,NY,42.886641,-78.879354
BUFFALO SABRES JERSEY,DECORATIVE OBJECTS,GARMENT,CLOTH,True,UNKNOWN,UNKNOWN,201 CITY HALL,65 NIAGARA SQUARE,BUFFALO,14202,NY,42.886641,-78.879354
YOUNG LINCOLN,SCULPTURE,FIGURATIVE,BRONZE,False,HTTP://WWW.CITY-BUFFALO.COM/FILES/1_2_1/PUBLIC%20ART%20WEBSITE/WEB%20PAGES/YOUNG%20LINCOLN.HTML,BRYANT BAKER,DELAWARE PARK,199 LINCOLN PKWY,BUFFALO,14209,NY,42.931635,-78.873736
MAYOR GEORGE S BUCK,PAINTINGS,PORTRAIT,OIL ON CANVAS,True,HTTP://WWW.CI.BUFFALO.NY.US/FILES/1_2_1/PUBLIC%20ART%20WEBSITE/WEB%20PAGES/GEORGE%20BUCK.HTML,GEZA KENDE,201 CITY HALL,65 NIAGARA SQUARE,BUFFALO,14202,NY,42.886641,-78.879354
FOUNTAIN AT FOUNTAIN PLAZA,DECORATIVE OBJECTS,FOUNTAIN,CARNELIAN GRANITE,False,HTTP://WWW.CI.BUFFALO.NY.US/FILES/1_2_1/PUBLIC%20ART%20WEBSITE/WEB%20PAGES/FOUNTAIN%20AT%20FOUNTAIN%20PLAZA.HTML,STU DAWSON,FOUNTAIN PLAZA,E CHIPPEWA ST & MAIN ST,BUFFALO,14201,NY,42.890736,-78.875651
MAYOR STEVEN PANKOW,PAINTINGS,PORTRAIT,OIL ON CANVAS,True,HTTP://WWW.CI.BUFFALO.NY.US/FILES/1_2_1/PUBLIC%20ART%20WEBSITE/WEB%20PAGES/STEVEN%20PANKOW.HTML,TONY SISTI,201 CITY HALL,65 NIAGARA SQUARE,BUFFALO,14202,NY,42.886641,-78.879354
GEORGE P BURD MEMORIAL,SCULPTURE,RELIEF,GRANITE,False,HTTP://WWW.CITY-BUFFALO.COM/FILES/1_2_1/PUBLIC%20ART%20WEBSITE/WEB%20PAGES/BURD%20MEMORIAL.HTML,UNKNOWN,MARKET SQUARE,AMHERST ST & NIAGARA ST,BUFFALO,14207,NY,42.934465,-78.901991
MARKET ARCADE,PAINTINGS,ABSTRACT,MIXED MEDIA,True,HTTP://WWW.CI.BUFFALO.NY.US/FILES/1_2_1/PUBLIC%20ART%20WEBSITE/WEB%20PAGES/MARKET%20ARCADE.HTML,TERRI KATZ KASIMOV,1417 CITY HALL,65 NIAGARA SQUARE,BUFFALO,14202,NY,42.886641,-78.879354
CHESTER C GORSKI,DECORATIVE OBJECTS,PLAQUE,BRONZE,False,HTTP://WWW.CITY-BUFFALO.COM/FILES/1_2_1/PUBLIC%20ART%20WEBSITE/WEB%20PAGES/CHESTER%20GORSKI%20PLAQUE.HTML,UNKNOWN,ERIE BASIN MARINA,329 ERIE ST,BUFFALO,14202,NY,42.884454,-78.890315
CRUSADE FOR FREEDOM MEMORIAL,SCULPTURE,RELIEF,GRANITE,False,HTTP://WWW.CITY-BUFFALO.COM/FILES/1_2_1/PUBLIC%20ART%20WEBSITE/WEB%20PAGES/CRUSADERS%20FOR%20FREEDOM.HTML,UNKNOWN,LASALLE PARK,AMVETS DRIVE,BUFFALO,14202,NY,42.88842,-78.891076
21ST WARD WORLD WAR I MEMORIAL,SCULPTURE,FIGURATIVE AND RELIEF,GRANITE AND BRONZE,False,HTTP://WWW.CITY-BUFFALO.COM/FILES/1_2_1/PUBLIC%20ART%20WEBSITE/WEB%20PAGES/21ST%20WARD%20WWI%20MEMORIAL.HTML,UNKNOWN,RIVERSIDE PARK,2607 NIAGARA ST,BUFFALO,14207,NY,42.955957,-78.910804
PRESIDENT GROVER CLEVELAND LETTERS,DECORATIVE OBJECTS,LETTER/PHOTOGRAPH,PAPER,True,UNKNOWN,UNKNOWN,201 CITY HALL,65 NIAGARA SQUARE,BUFFALO,14202,NY,42.886641,-78.879354
MAYOR FRANK A SEDITA,PAINTINGS,PORTRAIT,OIL ON CANVAS,True,HTTP://WWW.CI.BUFFALO.NY.US/FILES/1_2_1/PUBLIC%20ART%20WEBSITE/WEB%20PAGES/FRANK%20SEDITA.HTML,GEORGE PALMER,201 CITY HALL,65 NIAGARA SQUARE,BUFFALO,14202,NY,42.886641,-78.879354
CITY SEAL,DECORATIVE OBJECTS,PLAQUE,COPPER,False,HTTP://WWW.CI.BUFFALO.NY.US/FILES/1_2_1/PUBLIC%20ART%20WEBSITE/WEB%20PAGES/SEAL%20OF%20THE%20CITY%20OF%20BUFFALO%20I.HTML,JAZEF SLAWIAFSKI,201 CITY HALL,65 NIAGARA SQUARE,BUFFALO,14202,NY,42.886641,-78.879354
MAYOR JAMES D GRIFFIN,DECORATIVE OBJECTS,PLAQUE,BRONZE,False,UNKNOWN,PAUL ZINTER,COCA-COLA FIELD,1 JAMES D GRIFFIN PLAZA,BUFFALO,14203,NY,42.881297,-78.873975
SYMPHONY CIRCLE LAMP STAND,DECORATIVE OBJECTS,LAMP,CARBON STEEL AND FIBERGLASS,False,HTTP://WWW.CI.BUFFALO.NY.US/FILES/1_2_1/PUBLIC%20ART%20WEBSITE/WEB%20PAGES/SYMPHONY%20CIRCLE%20LAMP%20STAND.HTML,COLGATE INDUSTRIES,SYMPHONY CIRCLE,3 SYMPHONY CIRCLE,BUFFALO,14201,NY,42.902336,-78.881947
PRESIDENT JOHN F KENNEDY,SCULPTURE,BUST,BRONZE ON GRANITE BASE,False,HTTP://WWW.CI.BUFFALO.NY.US/FILES/1_2_1/PUBLIC%20ART%20WEBSITE/WEB%20PAGES/J.F.K.%20BUST.HTML,BRYANT BAKER,1ST FLOOR CITY HALL,65 NIAGARA SQUARE,BUFFALO,14202,NY,42.886641,-78.879354
MAYOR ELBRIDGE G SPAULDING,PAINTINGS,PORTRAIT,OIL ON CANVAS,True,HTTP://WWW.CI.BUFFALO.NY.US/FILES/1_2_1/PUBLIC%20ART%20WEBSITE/WEB%20PAGES/ELBRIDGE%20SPAULDING.HTML,L G SELLSTEDT,2ND FLOOR STORAGE CITY HALL,65 NIAGARA SQUARE,BUFFALO,14202,NY,42.886641,-78.879354
EDUCATION,PAINTINGS,LUNETTE MURAL,OIL ON CANVAS WITH  PLASTER RELIEF,False,HTTP://WWW.CI.BUFFALO.NY.US/FILES/1_2_1/PUBLIC%20ART%20WEBSITE/WEB%20PAGES/EDUCATION.HTML,WILLIAM DE LEFTWICH DODGE,1ST FLOOR CITY HALL,65 NIAGARA SQUARE,BUFFALO,14202,NY,42.886641,-78.879354
MAYOR JOSEPH J KELLY,PHOTOGRAPHY,PORTRAIT,PHOTOGRAPHIC IMAGE,True,HTTP://WWW.CI.BUFFALO.NY.US/FILES/1_2_1/PUBLIC%20ART%20WEBSITE/WEB%20PAGES/JOSEPH%20KELLY.HTML,UNKNOWN,201 CITY HALL,65 NIAGARA SQUARE,BUFFALO,14202,NY,42.886641,-78.879354
SOLDIERS AND SAILORS MONUMENT,SCULPTURE,FIGURATIVE,BRONZE,False,HTTP://WWW.CITY-BUFFALO.COM/FILES/1_2_1/PUBLIC%20ART%20WEBSITE/WEB%20PAGES/SOLDIERS%20AND%20SAILORS.HTML,CASPER BUBERT,LAFAYETTE SQUARE,415 MAIN ST,BUFFALO,14203,NY,42.885686,-78.873991
GEORGE W MALTBY MEMORIAL,DECORATIVE OBJECTS,PLAQUE,BRONZE,False,HTTP://WWW.CITY-BUFFALO.COM/FILES/1_2_1/PUBLIC%20ART%20WEBSITE/WEB%20PAGES/GEORGE%20W.%20MALTBY%20MEMORIAL.HTML,UNKNOWN,DELAWARE PARK,199 LINCOLN PKWY,BUFFALO,14209,NY,42.931635,-78.873736
MAYOR MAJOR ANDRE ANDREWS,PAINTINGS,PORTRAIT,OIL ON CANVAS,True,HTTP://WWW.CI.BUFFALO.NY.US/FILES/1_2_1/PUBLIC%20ART%20WEBSITE/WEB%20PAGES/ANDRE%20ANDREWS.HTML,H M LUQUIENS,201 CITY HALL,65 NIAGARA SQUARE,BUFFALO,14202,NY,42.886641,-78.879354
POLICE RESERVE WORLD WAR I MEMORIAL,SCULPTURE,FIGURATIVE,BRONZE AND STONE,False,HTTP://WWW.CI.BUFFALO.NY.US/FILES/1_2_1/PUBLIC%20ART%20WEBSITE/WEB%20PAGES/POLICE%20RESERVED%20WWI%20MEMORIAL.HTML,UNKNOWN,MARTIN LUTHER KING JR PARK,1354 GENESEE ST,BUFFALO,14211,NY,42.903817,-78.836196
CITY STREET MAP,GRAPHIC ARTS,MAP,CLOTH,True,UNKNOWN,UNKNOWN,502 CITY HALL,65 NIAGARA SQUARE,BUFFALO,14202,NY,42.886641,-78.879354
GIUSEPPE VERDI (ORIGINAL),SCULPTURE,BUST,BRONZE,False,HTTP://WWW.CI.BUFFALO.NY.US/FILES/1_2_1/PUBLIC%20ART%20WEBSITE/WEB%20PAGES/VERDI%20ORIGINAL.HTML,A DECIANNO AND ANTONIO UGO,FOREST LAWN CEMETERY,1411 DELAWARE AVE,BUFFALO,14209,NY,42.926959,-78.861236
WBEN MILLENNIUM TIME CAPSULE,DECORATIVE OBJECTS,TIME CAPSULE,GRANITE AND MIXED MEDIA,False,HTTP://WWW.CITY-BUFFALO.COM/FILES/1_2_1/PUBLIC%20ART%20WEBSITE/WEB%20PAGES/MILLENIUM%20TIME%20CAPSULE.HTML,WAGNER MONUMENTS,NIAGARA SQUARE,NIAGARA SQUARE,BUFFALO,14202,NY,42.886627,-78.878551
JAPANESE LANTERNS,SCULPTURE,FIGURATIVE,GRANITE,False,HTTP://WWW.CITY-BUFFALO.COM/FILES/1_2_1/PUBLIC%20ART%20WEBSITE/WEB%20PAGES/JAPANESE%20LANTERNS.HTML,UNKNOWN,JAPANESE GARDENS,1 MUSEUM CT,BUFFALO,14216,NY,42.935585,-78.875174
MUNICIPAL BASEBALL WWI MEMORIAL,DECORATIVE OBJECTS,PLAQUE,BRONZE AND GRANITE,False,HTTP://WWW.CITY-BUFFALO.COM/FILES/1_2_1/PUBLIC%20ART%20WEBSITE/WEB%20PAGES/MUNICIPAL%20BASEBALL%20ASSOC.%20WWI%20MEMORIAL.HTML,UNKNOWN,CAZENOVIA PARK,REDJACKET PKWY,BUFFALO,14220,NY,42.846737,-78.810073
GIUSEPPE VERDI (REPLICA),SCULPTURE,BUST,BRONZE,False,HTTP://WWW.CI.BUFFALO.NY.US/FILES/1_2_1/PUBLIC%20ART%20WEBSITE/WEB%20PAGES/VERDI%20REPLICA.HTML,A DECIANNO AND ANTONIO UGO,PORTER AVE,PORTER AVE & RICHMOND AVE,BUFFALO,14201,NY,42.902439,-78.882941
PHOTO OF DOWNTOWN,PHOTOGRAPHY,LANDSCAPE,MIXED MEDIA,True,UNKNOWN,UNKNOWN,304 CITY HALL,65 NIAGARA SQUARE,BUFFALO,14202,NY,42.886641,-78.879354
MAYOR JONATHAN SCOVILLE,PAINTINGS,PORTRAIT,OIL ON CANVAS,True,HTTP://WWW.CI.BUFFALO.NY.US/FILES/1_2_1/PUBLIC%20ART%20WEBSITE/WEB%20PAGES/JONATHON%20SCOVILLE.HTML,STANLEY G HARTE,2ND FLOOR STORAGE CITY HALL,65 NIAGARA SQUARE,BUFFALO,14202,NY,42.886641,-78.879354
WEBSTER'S NEW INTERNATIONAL DICTIONARY OF THE ENGLISH LANGUAGE,DECORATIVE OBJECTS,BOOK,PAPER WITH CLOTH BINDING,False,UNKNOWN,UNKNOWN,1308 CITY HALL,65 NIAGARA SQUARE,BUFFALO,14202,NY,42.886641,-78.879354
MAYOR CHESTER KOWAL,PAINTINGS,PORTRAIT,OIL ON CANVAS,True,HTTP://WWW.CI.BUFFALO.NY.US/FILES/1_2_1/PUBLIC%20ART%20WEBSITE/WEB%20PAGES/CHESTER%20KOWAL.HTML,E MEDAHOVICH,201 CITY HALL,65 NIAGARA SQUARE,BUFFALO,14202,NY,42.886641,-78.879354
COUNCIL PRESIDENT WILLIAM P FISHER,PAINTINGS,PORTRAIT,OIL ON CANVAS,True,HTTP://WWW.CI.BUFFALO.NY.US/FILES/1_2_1/PUBLIC%20ART%20WEBSITE/WEB%20PAGES/WILLIAM%20FISHER.HTML,CHARLES ODDO,COUNCIL CHAMBER CITY HALL,65 NIAGARA SQUARE,BUFFALO,14202,NY,42.886641,-78.879354
74TH/174TH REGIMENT VETERANS PLAQUE,DECORATIVE OBJECTS,PLAQUE,BRONZE,False,HTTP://WWW.CITY-BUFFALO.COM/FILES/1_2_1/PUBLIC%20ART%20WEBSITE/WEB%20PAGES/74TH%20REGIMENT%20VETERANS%20PLAQUE.HTML,UNKNOWN,BUFFALO AND ERIE COUNTY NAVAL & MILITARY PARK,1 NAVAL PARK COVE,BUFFALO,14202,NY,42.878077,-78.880826
BUFFALO AND ERIE COUNTY HISTORICAL SOCIETY DOORS,DECORATIVE OBJECTS,DOORS,BRONZE,False,HTTP://WWW.CI.BUFFALO.NY.US/FILES/1_2_1/PUBLIC%20ART%20WEBSITE/WEB%20PAGES/HISTORICAL%20SOCIETY%20DOORS.HTML,R CLINTON PERRY,BUFFALO HISTORY MUSEUM,1 MUSEUM COURT,BUFFALO,14216,NY,42.935415,-78.87627
DAVID,SCULPTURE,FIGURATIVE,BRONZE AND GRANITE,False,HTTP://WWW.CITY-BUFFALO.COM/FILES/1_2_1/PUBLIC%20ART%20WEBSITE/WEB%20PAGES/DAVID.HTML,MICHELANGELO BURNARROTI,DELAWARE PARK,MEADOW DRIVE,BUFFALO,14209,NY,42.933988,-78.873198
MERCHANT MARINE MEMORIAL,SCULPTURE,RELIEF,GRANITE AND BRONZE,False,HTTP://WWW.CITY-BUFFALO.COM/FILES/1_2_1/PUBLIC%20ART%20WEBSITE/WEB%20PAGES/MERCHANT%20MARINE%20MEMORIAL.HTML,TONY DECORSE,BUFFALO AND ERIE COUNTY NAVAL & MILITARY PARK,1 NAVAL PARK COVE,BUFFALO,14202,NY,42.878077,-78.880826
GRANDFATHER CLOCK,DECORATIVE OBJECTS,ANTIQUE CLOCK,MIXED MEDIA,False,UNKNOWN,UNKNOWN,226 CITY HALL,65 NIAGARA SQUARE,BUFFALO,14202,NY,42.886641,-78.879354
FERRY CIRCLE LAMP STAND,DECORATIVE OBJECTS,LAMP,"STEEL, FIBERGLASS   & SANDSTONE",False,HTTP://WWW.CI.BUFFALO.NY.US/FILES/1_2_1/PUBLIC%20ART%20WEBSITE/WEB%20PAGES/FERRY%20CIRCLE%20LAMP%20STAND.HTML,COLGATE INDUSTRIES,FERRY CIRCLE,FERRY ST & RICHMOND ST,BUFFALO,14213,NY,42.915606,-78.882276
ALEXANDER PETOFI,SCULPTURE,BUST,BRONZE,False,HTTP://WWW.CI.BUFFALO.NY.US/FILES/1_2_1/PUBLIC%20ART%20WEBSITE/WEB%20PAGES/PETOFI.HTML,GABRIELLA F KOSZORUS VARSA AND GEZA KENDE,RIVERSIDE PARK,2607 NIAGARA ST,BUFFALO,14207,NY,42.953998,-78.908087
POLICE MEMORIAL,SCULPTURE,FOUNTAIN,GRANITE AND CONCRETE,False,HTTP://WWW.CITY-BUFFALO.COM/FILES/1_2_1/PUBLIC%20ART%20WEBSITE/WEB%20PAGES/POLICE%20MEMORIAL.HTML,PETER CASTLE,BUFFALO POLICE DEPARTMENT,FRANKLIN ST,BUFFALO,14202,NY,42.882484,-78.878047
COUNCIL PRESIDENT HENRY F JERGE,PAINTINGS,PORTRAIT,OIL ON CANVAS ON PANEL,True,HTTP://WWW.CI.BUFFALO.NY.US/FILES/1_2_1/PUBLIC%20ART%20WEBSITE/WEB%20PAGES/HENRY%20JERGE.HTML,J C MAZUR,COUNCIL CHAMBER CITY HALL,65 NIAGARA SQUARE,BUFFALO,14202,NY,42.886641,-78.879354
NIKOLA TESLA STATUE,SCULPTURE,,,False,,MARK DEFRAFFENRIED,MAIN & NORTH DIVISION,MAIN & NORTH DIVISION,BUFFALO,14202,NY,42.88316,-78.875193
OLDEST TREE IN BUFFALO COMMEMORATIVE PLAQUE,DECORATIVE OBJECTS,PLAQUE,BRONZE,False,UNKNOWN,UNKNOWN,STREET TREE LAWN,FRANKLIN ST & EDWARD STREET,BUFFALO,14202,NY,42.895687,-78.873701
CHARITY,PAINTING,MURAL,OIL ON CANVAS WITH HIGH RELIEF PLASTER,False,HTTP://WWW.CI.BUFFALO.NY.US/FILES/1_2_1/PUBLIC%20ART%20WEBSITE/WEB%20PAGES/CHARITY.HTML,WILLIAM DE LEFTWICH DODGE,1ST FLOOR CITY HALL,65 NIAGARA SQUARE,BUFFALO,14202,NY,42.886641,-78.879354
MAYOR WILLIAM F ROGERS,GRAPHIC ARTS,PORTRAIT,PASTEL ON PAPER,True,HTTP://WWW.CI.BUFFALO.NY.US/FILES/1_2_1/PUBLIC%20ART%20WEBSITE/WEB%20PAGES/WILLIAM%20ROGERS.HTML,UNKNOWN,2ND FLOOR STORAGE CITY HALL,65 NIAGARA SQUARE,BUFFALO,14202,NY,42.886641,-78.879354
9/11 MEMORIAL,SCULPTURE,RELIEF,GRANITE,False,HTTP://WWW.CITY-BUFFALO.COM/FILES/1_2_1/PUBLIC%20ART%20WEBSITE/WEB%20PAGES/9-11-01%20MEMORIAL.HTML,LEON KOMM AND SON MONUMENT COMPANY,HOUGHTON-STACHOWSKI PARK,CLINTON ST,BUFFALO,14206,NY,42.871691,-78.813918
MAYOR FRANK X SCHWAB,PAINTINGS,PORTRAIT,OIL ON CANVAS,True,UNKNOWN,UNKNOWN,201 CITY HALL,65 NIAGARA SQUARE,BUFFALO,14202,NY,42.886641,-78.879354
COMMODORE OLIVER HAZARD PERRY,SCULPTURE,FIGURATIVE,BRONZE AND PINK GRANITE,False,HTTP://WWW.CITY-BUFFALO.COM/FILES/1_2_1/PUBLIC%20ART%20WEBSITE/WEB%20PAGES/PERRY.HTML,CHARLES H NIEHAUS,FRONT PARK,952 BUSTI AVE,BUFFALO,14213,NY,42.902176,-78.89826
SUBMARINE VETERANS OF WWII MEMORIAL,DECORATIVE OBJECTS,PLAQUE,BRONZE,False,HTTP://WWW.CI.BUFFALO.NY.US/FILES/1_2_1/PUBLIC%20ART%20WEBSITE/WEB%20PAGES/SUB%20VETERANS%20WWII%20MEMORIAL.HTML,UNKNOWN,BUFFALO AND ERIE COUNTY NAVAL & MILITARY PARK,1 NAVAL PARK COVE,BUFFALO,14202,NY,42.878077,-78.880826
JOHN E MULROY PLAQUE,DECORATIVE OBJECTS,PLAQUE,BRONZE AND GRANITE,False,HTTP://WWW.CITY-BUFFALO.COM/FILES/1_2_1/PUBLIC%20ART%20WEBSITE/WEB%20PAGES/JOHN%20E.%20MULROY%20PLAQUE.HTML,UNKNOWN,CAZENOVIA PARK,CAZENOVIA ST,BUFFALO,14220,NY,42.846737,-78.810073
MAYOR/COUNCIL MEMBERS,GRAPHIC ARTS,PORTRAIT,PAPER,True,UNKNOWN,UNKNOWN,COUNCIL CHAMBER CITY HALL,65 NIAGARA SQUARE,BUFFALO,14202,NY,42.886641,-78.879354
MAIN-JEFFERSON COMMUNITY WWII MEMORIAL,SCULPTURE,FIGURATIVE,GRANITE,False,HTTP://WWW.CITY-BUFFALO.COM/FILES/1_2_1/PUBLIC%20ART%20WEBSITE/WEB%20PAGES/MAIN-JEFFERSON%20COMMUNITY%20WWII%20MEMORIAL.HTML,UNKNOWN,STREET CORNER SE,MAIN ST & JEFFERSON AVE,BUFFALO,14208,NY,42.924693,-78.854149
INDIAN HUNTER,SCULPTURE,FIGURATIVE,BRONZE,False,HTTP://WWW.CITY-BUFFALO.COM/FILES/1_2_1/PUBLIC%20ART%20WEBSITE/WEB%20PAGES/INDIAN%20HUNTER.HTML,JOHN QUINCY ADAMS WARD,DELAWARE PARK,MEADOW DRIVE,BUFFALO,14209,NY,42.933414,-78.855218
MAYOR GROVER CLEVELAND,PAINTINGS,PORTRAIT,OIL ON CANVAS,True,HTTP://WWW.CI.BUFFALO.NY.US/FILES/1_2_1/PUBLIC%20ART%20WEBSITE/WEB%20PAGES/GROVER%20CLEVELAND.HTML,J C ROTHER,201 CITY HALL,65 NIAGARA SQUARE,BUFFALO,14202,NY,42.886641,-78.879354
MAYOR STANLEY M MAKOWSKI,PAINTINGS,PORTRAIT,HAND COLORED PHOTOGRAPH,True,HTTP://WWW.CI.BUFFALO.NY.US/FILES/1_2_1/PUBLIC%20ART%20WEBSITE/WEB%20PAGES/STANLEY%20MAKOWSKI.HTML,ETTORE WINTER,201 CITY HALL,65 NIAGARA SQUARE,BUFFALO,14202,NY,42.886641,-78.879354
OPENING NIGHT,PAINTINGS,PORTRAIT,OIL ON CANVAS,True,HTTP://WWW.CI.BUFFALO.NY.US/FILES/1_2_1/PUBLIC%20ART%20WEBSITE/WEB%20PAGES/OPENING.HTML,ANITA L JOHNSON,1417 CITY HALL,65 NIAGARA SQUARE,BUFFALO,14202,NY,42.886641,-78.879354
IRISH FAMINE MEMORIAL,SCULPTURE,ABSTRACT,STONE AND BRONZE,False,HTTP://WWW.CITY-BUFFALO.COM/FILES/1_2_1/PUBLIC%20ART%20WEBSITE/WEB%20PAGES/IRISH%20FAMINE%20MEMORIAL.HTML,FERGUS DESIGN,ERIE BASIN MARINA,329 ERIE ST,BUFFALO,14202,NY,42.884454,-78.890315
COL WARD PUMPING STATION RENDERING,GRAPHIC ARTS,DRAWING,PAPER,False,UNKNOWN,UNKNOWN,6TH FLOOR CITY HALL,65 NIAGARA SQUARE,BUFFALO,14202,NY,42.886641,-78.879354
MAYOR HIRAM PRATT,PAINTINGS,PORTRAIT,OIL ON PANEL,True,HTTP://WWW.CI.BUFFALO.NY.US/FILES/1_2_1/PUBLIC%20ART%20WEBSITE/WEB%20PAGES/HIRAM%20PRATT.HTML,UNKNOWN,201 CITY HALL,65 NIAGARA SQUARE,BUFFALO,14202,NY,42.886641,-78.879354
CITY HALL TIME CAPSULE,DECORATIVE OBJECTS,TIME CAPSULE,MIXED MEDIA,False,UNKNOWN,HADLEY EXHIBITS,25TH FLOOR CITY HALL,65 NIAGARA SQUARE,BUFFALO,14202,NY,42.886641,-78.879354
THE HIKER,SCULPTURE,FIGURATIVE,BRONZE,False,HTTP://WWW.CITY-BUFFALO.COM/FILES/1_2_1/PUBLIC%20ART%20WEBSITE/WEB%20PAGES/THE%20HIKER.HTML,ALLEN GEORGE NEWMAN,ROOSEVELT PLAZA,E HURON ST & MAIN ST,BUFFALO,14203,NY,42.888517,-78.873302
LIFE MEMORIAL PARK,DECORATIVE OBJECTS,PLAQUE,"BRONZE ,GRANITE & CONCRETE",False,HTTP://WWW.CITY-BUFFALO.COM/FILES/1_2_1/PUBLIC%20ART%20WEBSITE/WEB%20PAGES/LIFE%20MEMORIAL%20PLAQUE.HTML,UNKNOWN,LIFE MEMORIAL PARK,NORMAL AVE AND PORTER AVE,BUFFALO,14201,NY,42.902908,-78.884856
UNTITLED #1,SCULPTURE,ABSTRACT,COR-TEN STEEL,False,HTTP://WWW.CITY-BUFFALO.COM/FILES/1_2_1/PUBLIC%20ART%20WEBSITE/WEB%20PAGES/UNTITLED%201.HTML,DUAYNE HATCHETT,TONY SISTI PARK,42 NORTH ST,BUFFALO,14202,NY,42.902122,-78.871189
LOOKING TO CITY HALL,COLLAGE,LANDSCAPE,WATERCOLOR ON PAPER,True,HTTP://WWW.CI.BUFFALO.NY.US/FILES/1_2_1/PUBLIC%20ART%20WEBSITE/WEB%20PAGES/LOOKING%20TO%20CITY%20HALL.HTML,RITA ARGEN AUERBACH,1417 CITY HALL,65 NIAGARA SQUARE,BUFFALO,14202,NY,42.886641,-78.879354
COUNCIL PRESIDENT FRANK C PERKINS,PAINTINGS,PORTRAIT,OIL ON CANVAS ON PANEL,True,HTTP://WWW.CI.BUFFALO.NY.US/FILES/1_2_1/PUBLIC%20ART%20WEBSITE/WEB%20PAGES/FRANK%20PERKINS.HTML,J C MAZUR,COUNCIL CHAMBER CITY HALL,65 NIAGARA SQUARE,BUFFALO,14202,NY,42.886641,-78.879354
CHARLES E ROESCH,DECORATIVE OBJECTS,PLAQUE,BRONZE,False,HTTP://WWW.CITY-BUFFALO.COM/FILES/1_2_1/PUBLIC%20ART%20WEBSITE/WEB%20PAGES/ROESCH%20PLAQUE.HTML,W M EHRICH SC,1ST FLOOR CITY HALL,65 NIAGARA SQUARE,BUFFALO,14202,NY,42.886641,-78.879354
LAKE ERIE,DECORATIVE OBJECTS,PLAQUE,GRANITE,False,HTTP://WWW.CITY-BUFFALO.COM/FILES/1_2_1/PUBLIC%20ART%20WEBSITE/WEB%20PAGES/LAKE%20ERIE%20PLAQUE.HTML,LINCOLN MEMORIALS,ERIE BASIN MARINA,329 ERIE ST,BUFFALO,14202,NY,42.884454,-78.890315
CONSTRUCTION,PAINTINGS,LUNETTE MURAL,OIL ON CANVAS WITH  PLASTER RELIEF,False,HTTP://WWW.CI.BUFFALO.NY.US/FILES/1_2_1/PUBLIC%20ART%20WEBSITE/WEB%20PAGES/CONSTRUCTION.HTML,WILLIAM DE LEFTWICH DODGE,1ST FLOOR CITY HALL,65 NIAGARA SQUARE,BUFFALO,14202,NY,42.886641,-78.879354
DELAWARE PARK PLAQUE II,DECORATIVE OBJECTS,PLAQUE,BRONZE,False,HTTP://WWW.CITY-BUFFALO.COM/FILES/1_2_1/PUBLIC%20ART%20WEBSITE/WEB%20PAGES/DELAWARE%20PARK%20PLAQUE%20II.HTML,UNKNOWN,DELAWARE PARK,MEADOW DRIVE,BUFFALO,14216,NY,42.933451,-78.869458
MAYOR ERASTUS C KNIGHT,PAINTINGS,PORTRAIT,OIL ON CANVAS,True,HTTP://WWW.CI.BUFFALO.NY.US/FILES/1_2_1/PUBLIC%20ART%20WEBSITE/WEB%20PAGES/ERASTUS%20KNIGHT.HTML,RAPHAEL BECK,201 CITY HALL,65 NIAGARA SQUARE,BUFFALO,14202,NY,42.886641,-78.879354
CANADIAN MAPLE TREES COMMEMORATIVE PLAQUE,DECORATIVE OBJECTS,PLAQUE,BRONZE ON GRANITE BASE,False,HTTP://WWW.CITY-BUFFALO.COM/FILES/1_2_1/PUBLIC%20ART%20WEBSITE/WEB%20PAGES/CANADIAN%20TREES.HTML,UNKNOWN,BUFFALO CITY COURT BUILDING,50 DELAWARE AVE,BUFFALO,14202,NY,42.885709,-78.87959
BUFFALO CITY HALL,PHOTOGRAPHY,LANDSCAPE,PHOTOGRAPHIC IMAGE,True,UNKNOWN,UNKNOWN,502 CITY HALL,65 NIAGARA SQUARE,BUFFALO,14202,NY,42.886641,-78.879354
16TH WARD WORLD WAR I MEMORIAL,SCULPTURE,RELIEF,GRANITE,False,HTTP://WWW.CITY-BUFFALO.COM/FILES/1_2_1/PUBLIC%20ART%20WEBSITE/WEB%20PAGES/16TH%20WARD%20WWI%20MEMORIAL.HTML,UNKNOWN,SYCAMORE ST & WALDEN AVE,447 WALDEN AVE,BUFFALO,14211,NY,42.904007,-78.81945
B DISTRICT POLICE MURAL,PAINTINGS,MURAL,ACRYLIC ON CANVAS,True,HTTP://WWW.CI.BUFFALO.NY.US/FILES/1_2_1/PUBLIC%20ART%20WEBSITE/WEB%20PAGES/B%20DISTRICT%20POLICE%20MURAL.HTML,ANDREW REID,POLICE PRECINCT,E TUPPER ST & MAIN ST,BUFFALO,14203,NY,42.893331,-78.871878
13TH REGIMENT US INFANTRY,DECORATIVE OBJECTS,PLAQUE,BRONZE ON BOULDER,False,HTTP://WWW.CITY-BUFFALO.COM/FILES/1_2_1/PUBLIC%20ART%20WEBSITE/WEB%20PAGES/13TH%20REGIMENT%20US%20INFANTRY.HTML,UNKNOWN,BUFFALO HISTORY MUSEUM,1 MUSEUM COURT,BUFFALO,14216,NY,42.935415,-78.87627
MAYOR CONRAD DIEHL,PAINTINGS,PORTRAIT,OIL ON CANVAS,True,HTTP://WWW.CI.BUFFALO.NY.US/FILES/1_2_1/PUBLIC%20ART%20WEBSITE/WEB%20PAGES/CONRAD%20DIEHL.HTML,G J  RUDOLPH,201 CITY HALL,65 NIAGARA SQUARE,BUFFALO,14202,NY,42.886641,-78.879354
FRONTIERS UNFETTERED BY ANY FROWNING FORTRESS,PAINTINGS,MURAL,OIL ON CANVAS WITH PLASTER RELIEF,False,HTTP://WWW.CI.BUFFALO.NY.US/FILES/1_2_1/PUBLIC%20ART%20WEBSITE/WEB%20PAGES/FRONTIERS%20UNFETTERED%20BY%20ANY%20FROWNING%20FORTESS.HTML,WILLIAM DE LEFTWICH DODGE,1ST FLOOR CITY HALL,65 NIAGARA SQUARE,BUFFALO,14202,NY,42.886641,-78.879354
GENERAL KAZIMIER PULASKI,SCULPTURE,FIGURATIVE,BRONZE,False,HTTP://WWW.CITY-BUFFALO.COM/FILES/1_2_1/PUBLIC%20ART%20WEBSITE/WEB%20PAGES/GENERAL%20KAZIMIER%20PULASKI.HTML,KAZIMIERZ DANILEWICZ,FIVE FLAGS PARK,S DIVISION ST,BUFFALO,14203,NY,42.883027,-78.874999
WILLIAM MCKINLEY MONUMENT,SCULPTURE,FOUNTAIN,VERMONT AND ITALIAN MARBLE,False,HTTP://WWW.CITY-BUFFALO.COM/FILES/1_2_1/PUBLIC%20ART%20WEBSITE/WEB%20PAGES/MCKINLEY%20MONUMENT.HTML,ALEXANDER PHI MISTER PROCTOR AND NEWMAN AND EVANS,NIAGARA SQUARE,NIAGARA SQUARE,BUFFALO,14202,NY,42.886627,-78.878551
MAYOR JOSEPH MRUK,PAINTINGS,PORTRAIT,OIL ON CANVAS,True,HTTP://WWW.CI.BUFFALO.NY.US/FILES/1_2_1/PUBLIC%20ART%20WEBSITE/WEB%20PAGES/JOSEPH%20MRUK.HTML,VIRGINIA TILLOU,201 CITY HALL,65 NIAGARA SQUARE,BUFFALO,14202,NY,42.886641,-78.879354
CITY HALL FRIEZE EAST,SCULPTURE,RELIEF,STONE,False,HTTP://WWW.CITY-BUFFALO.COM/FILES/1_2_1/PUBLIC%20ART%20WEBSITE/WEB%20PAGES/CITY%20HALL%20FRIEZE%20EAST.HTML,ALBERT STEWART,CITY HALL,65 NIAGARA SQUARE,BUFFALO,14202,NY,42.886641,-78.879354
JAPANESE GARDEN DEDICATION STONE,SCULPTURE,RELIEF,STONE,False,HTTP://WWW.CITY-BUFFALO.COM/FILES/1_2_1/PUBLIC%20ART%20WEBSITE/WEB%20PAGES/JAPANESE%20GARDEN%20DEDICATION%20STONE.HTML,UNKNOWN,JAPANESE GARDENS,1 MUSEUM CT,BUFFALO,14216,NY,42.935585,-78.875174
WOLFGANG A MOZART,SCULPTURE,BUST,BRONZE AND RED QUINCY GRANITE,False,HTTP://WWW.CI.BUFFALO.NY.US/FILES/1_2_1/PUBLIC%20ART%20WEBSITE/WEB%20PAGES/MOZART.HTML,OLIN H WARNER,DELAWARE PARK,MEADOW DRIVE,BUFFALO,14216,NY,42.935624,-78.875722
HISTORIC ITEMS,DECORATIVE OBJECTS,VARIOUS,MIXED MEDIA,False,UNKNOWN,VARIOUS,201 CITY HALL,65 NIAGARA SQUARE,BUFFALO,14202,NY,42.886641,-78.879354
CITY HALL,PHOTOGRAPHY,PHOTOGRAPH,PHOTOGRAPHIC IMAGE,True,HTTP://WWW.CI.BUFFALO.NY.US/FILES/1_2_1/PUBLIC%20ART%20WEBSITE/WEB%20PAGES/CITY%20HALL.HTML,BIFF HENRICH,1417 CITY HALL,65 NIAGARA SQUARE,BUFFALO,14202,NY,42.886641,-78.879354
MAYOR ISAAC R HARRINGTON,PAINTINGS,PORTRAIT,OIL ON CANVAS,True,HTTP://WWW.CI.BUFFALO.NY.US/FILES/1_2_1/PUBLIC%20ART%20WEBSITE/WEB%20PAGES/ISAAC%20HARRINGTON.HTML,UNKNOWN,2ND FLOOR STORAGE CITY HALL,65 NIAGARA SQUARE,BUFFALO,14202,NY,42.886641,-78.879354
GENERAL DANIEL DAVIDSON BIDWELL,SCULPTURE,FIGURITIVE,BRONZE,False,HTTP://WWW.CITY-BUFFALO.COM/FILES/1_2_1/PUBLIC%20ART%20WEBSITE/WEB%20PAGES/BIDWELL.HTML,SAHL SWARZ,COLONIAL CIRCLE,BIDWELL PKWY,BUFFALO,14222,NY,42.920769,-78.881047
MAYOR PHILIP BECKER,PAINTINGS,PORTRAIT,OIL ON CANVAS,True,HTTP://WWW.CI.BUFFALO.NY.US/FILES/1_2_1/PUBLIC%20ART%20WEBSITE/WEB%20PAGES/PHILIP%20BECKER.HTML,J P SELINGER,201 CITY HALL,65 NIAGARA SQUARE,BUFFALO,14202,NY,42.886641,-78.879354
FRANK W TYLER MEMORIAL,DECORATIVE OBJECTS,PLAQUE,GRANITE,False,HTTP://WWW.CITY-BUFFALO.COM/FILES/1_2_1/PUBLIC%20ART%20WEBSITE/WEB%20PAGES/FRANK%20W.%20TYLER%20MEMORIAL.HTML,UNKNOWN,TYLER PARK,78 SOUTHSIDE PKWY,BUFFALO,14220,NY,42.850363,-78.823991
ZONING MAPS,GRAPHIC ARTS,MAP,PAPER,False,UNKNOWN,UNKNOWN,304 CITY HALL,65 NIAGARA SQUARE,BUFFALO,14202,NY,42.886641,-78.879354
PEARL HARBOR MEMORIAL,SCULPTURE,RELIEF,GRANITE,False,HTTP://WWW.CITY-BUFFALO.COM/FILES/1_2_1/PUBLIC%20ART%20WEBSITE/WEB%20PAGES/PEARL%20HARBOR%20MEMORIAL.HTML,UNKNOWN,BUFFALO AND ERIE COUNTY NAVAL & MILITARY PARK,1 NAVAL PARK COVE,BUFFALO,14202,NY,42.878077,-78.880826
JOAN FUZAK,DECORATIVE OBJECTS,PLAQUE,BRONZE,False,HTTP://WWW.CITY-BUFFALO.COM/FILES/1_2_1/PUBLIC%20ART%20WEBSITE/WEB%20PAGES/JOAN%20FUZAK%20PLAQUE.HTML,UNKNOWN,ERIE BASIN MARINA,329 ERIE ST,BUFFALO,14202,NY,42.884454,-78.890315
MAYOR FRANK X SCHWAB,PHOTOGRAPHY,PORTRAIT,PHOTOGRAPHIC IMAGE,True,UNKNOWN,UNKNOWN,201 CITY HALL,65 NIAGARA SQUARE,BUFFALO,14202,NY,42.886641,-78.879354
KOREAN WAR VETERANS,SCULPTURE,RELIEF,GRANITE,False,HTTP://WWW.CITY-BUFFALO.COM/FILES/1_2_1/PUBLIC%20ART%20WEBSITE/WEB%20PAGES/KOREAN%20WAR%20VETERANS%20MEMORIAL.HTML,HENRY GORKO AND LEANORD SZYMANSKI,HOUGHTON-STACHOWSKI PARK,CLINTON ST,BUFFALO,14206,NY,42.871691,-78.813918
PAN-AMERICAN EXPOSITION CENTENNIAL MONUMENT,SCULPTURE,RELIEF,POLISHED BLACK GRANITE,False,HTTP://WWW.CITY-BUFFALO.COM/FILES/1_2_1/PUBLIC%20ART%20WEBSITE/WEB%20PAGES/PAN-AMERICAN%20EXPOSITION%20CENTENNIAL%20MONUMENT.HTML,WILLIAM G KOCH,DELAWARE PARK,MEADOW DRIVE,BUFFALO,14216,NY,42.930496,-78.873167
BUFFALO ARTS COMMISSION AWARD PLAQUE,DECORATIVE OBJECTS,PLAQUE,BRONZE,False,HTTP://WWW.CITY-BUFFALO.COM/FILES/1_2_1/PUBLIC%20ART%20WEBSITE/WEB%20PAGES/BUFFALO%20ARTS%20COMMISSION%20AWARD.HTML,UNKNOWN,1ST FLOOR CITY HALL,65 NIAGARA SQUARE,BUFFALO,14202,NY,42.886641,-78.879354
MAYOR JAMES N ADAM,PAINTINGS,PORTRAIT,OIL ON CANVAS,True,HTTP://WWW.CI.BUFFALO.NY.US/FILES/1_2_1/PUBLIC%20ART%20WEBSITE/WEB%20PAGES/JAMES%20ADAM.HTML,UNKNOWN,201 CITY HALL,65 NIAGARA SQUARE,BUFFALO,14202,NY,42.886641,-78.879354
RIVERSIDE PARK LIGHTHOUSE MEMORIAL,SCULPTURE,FIGURATIVE,GRANITE AND BRONZE,False,UNKNOWN,UNKNOWN,RIVERSIDE PARK,2607 NIAGARA ST,BUFFALO,14207,NY,42.955957,-78.910804
DR MARTIN LUTHER KING JR MEMORIAL,SCULPTURE,FIGURATIVE,BRONZE,False,HTTP://WWW.CI.BUFFALO.NY.US/FILES/1_2_1/PUBLIC%20ART%20WEBSITE/WEB%20PAGES/MLK%20JR.%20MEMORIAL.HTML,JOHN WILSON,MARTIN LUTHER KING JR. PARK,FILLMORE AVE,BUFFALO,14211,NY,42.90431,-78.842659
PORTRAIT OF CITY HALL,COLLAGE,LANDSCAPE,MIXED MEDIA,True,HTTP://WWW.CI.BUFFALO.NY.US/FILES/1_2_1/PUBLIC%20ART%20WEBSITE/WEB%20PAGES/PORTRAIT%20OF%20CITY%20HALL.HTML,GERALD C MEAD JR,1417 CITY HALL,65 NIAGARA SQUARE,BUFFALO,14202,NY,42.886641,-78.879354
AT THE READY (115TH NY VOLUNTEER INFANTRY CIVIL WAR MEMORIAL),DECORATIVE OBJECTS,PLAQUE,BRONZE,False,HTTP://WWW.CITY-BUFFALO.COM/FILES/1_2_1/PUBLIC%20ART%20WEBSITE/WEB%20PAGES/115TH%20NY%20VOLUNTEER%20INFANTRY%20CIVIL%20WAR%20MEMORIAL.HTML,HENRY J SCHMIDT,BUFFALO AND ERIE COUNTY NAVAL & MILITARY PARK,1 NAVAL PARK COVE,BUFFALO,14202,NY,42.878077,-78.880826
"LINCOLN, THE EMANCIPATOR",SCULPTURE,FIGURATIVE,BRONZE,False,HTTP://WWW.CITY-BUFFALO.COM/FILES/1_2_1/PUBLIC%20ART%20WEBSITE/WEB%20PAGES/LINCOLN%20THE%20EMANCIPATOR.HTML,CHARLES H NIEHAUS,BUFFALO HISTORY MUSEUM,1 MUSEUM COURT,BUFFALO,14216,NY,42.935415,-78.87627
COUNCIL PRESIDENT ELMER J LUX,PAINTINGS,PORTRAIT,OIL ON CANVAS,True,HTTP://WWW.CI.BUFFALO.NY.US/FILES/1_2_1/PUBLIC%20ART%20WEBSITE/WEB%20PAGES/ELMER%20LUX.HTML,TONY SISTI,COUNCIL CHAMBER CITY HALL,65 NIAGARA SQUARE,BUFFALO,14202,NY,42.886641,-78.879354
COUNCIL PRESIDENT WILLIAM B LAWLESS,PHOTOGRAPHY,PORTRAIT,HAND COLORED PHOTOGRAPH,True,HTTP://WWW.CI.BUFFALO.NY.US/FILES/1_2_1/PUBLIC%20ART%20WEBSITE/WEB%20PAGES/WILLIAM%20LAWLESS.HTML,SCHALK,COUNCIL CHAMBER CITY HALL,65 NIAGARA SQUARE,BUFFALO,14202,NY,42.886641,-78.879354
MAYOR TIMOTHY T LOCKWOOD,PAINTINGS,PORTRAIT,OIL ON CANVAS,True,HTTP://WWW.CI.BUFFALO.NY.US/FILES/1_2_1/PUBLIC%20ART%20WEBSITE/WEB%20PAGES/TIMOTHY%20LOCKWOOD.HTML,EDWARD D FUER,2ND FLOOR STORAGE CITY HALL,65 NIAGARA SQUARE,BUFFALO,14202,NY,42.886641,-78.879354
STANLEY P MAGNUSZEWSKI MEMORIAL,SCULPTURE,RELIEF,GRANITE,False,HTTP://WWW.CITY-BUFFALO.COM/FILES/1_2_1/PUBLIC%20ART%20WEBSITE/WEB%20PAGES/STANLEY%20P.%20MAGNUSZEWSKI%20MEMORIAL.HTML,UNKNOWN,STREET CORNER SW,WILLIAM ST & FILLMORE AVE,BUFFALO,14206,NY,42.884815,-78.839489
PORTER AVE PUMPING TOWER RENDERING,GRAPHIC ARTS,DRAWING,PAPER,False,UNKNOWN,UNKNOWN,6TH FLOOR CITY HALL,65 NIAGARA SQUARE,BUFFALO,14202,NY,42.886641,-78.879354
COUNCIL PRESIDENT JOHN A ULINSKI,PAINTINGS,PORTRAIT,OIL ON CANVAS,True,HTTP://WWW.CI.BUFFALO.NY.US/FILES/1_2_1/PUBLIC%20ART%20WEBSITE/WEB%20PAGES/JOHN%20ULINSKI.HTML,EDWARD REIGEL,COUNCIL CHAMBER CITY HALL,65 NIAGARA SQUARE,BUFFALO,14202,NY,42.886641,-78.879354
MAYOR GEORGE J ZIMMERMAN,PHOTOGRAPHY,PORTRAIT,PHOTOGRAPHIC IMAGE,True,HTTP://WWW.CI.BUFFALO.NY.US/FILES/1_2_1/PUBLIC%20ART%20WEBSITE/WEB%20PAGES/GEORGE%20ZIMMERMAN.HTML,UNKNOWN,201 CITY HALL,65 NIAGARA SQUARE,BUFFALO,14202,NY,42.886641,-78.879354
DO THE RIGHT THING,PAINTINGS,LANDSCAPE,PHOTOGRAPHIC IMAGE,True,HTTP://WWW.CI.BUFFALO.NY.US/FILES/1_2_1/PUBLIC%20ART%20WEBSITE/WEB%20PAGES/DO%20THE%20RIGHT%20THING.HTML,STANFORD LIPSEY,1417 CITY HALL,65 NIAGARA SQUARE,BUFFALO,14202,NY,42.886641,-78.879354
GATES CIRCLE LAMP STANDS,DECORATIVE OBJECTS,LAMP,BRONZE,False,HTTP://WWW.CI.BUFFALO.NY.US/FILES/1_2_1/PUBLIC%20ART%20WEBSITE/WEB%20PAGES/GATES%20CIRCLE%20LAMP%20STANDS.HTML,UNKNOWN,GATES CIRCLE,DELAWARE AVE & LAFAYETTE AVE,BUFFALO,14209,NY,42.920335,-78.868002
WORLD WAR I MEMORIAL,SCULPTURE,PLAQUE,GRANITE,False,UNKNOWN,UNKNOWN,STREET TRIANGLE MEDIAN,MAIN ST & NORTHLAND AVE,BUFFALO,14209,NY,42.919641,-78.859655
MAYOR ALEXANDER BRUSH,PAINTINGS,PORTRAIT,OIL ON CANVAS,True,HTTP://WWW.CI.BUFFALO.NY.US/FILES/1_2_1/PUBLIC%20ART%20WEBSITE/WEB%20PAGES/ALEXANDER%20BRUSH.HTML,H I  MARLATT,2ND FLOOR STORAGE CITY HALL,65 NIAGARA SQUARE,BUFFALO,14202,NY,42.886641,-78.879354
MAYOR SOLOMON SCHEU,PAINTINGS,PORTRAIT,OIL ON CANVAS,True,HTTP://WWW.CI.BUFFALO.NY.US/FILES/1_2_1/PUBLIC%20ART%20WEBSITE/WEB%20PAGES/SOLOMON%20SCHEU.HTML,J C ROTHER,201 CITY HALL,65 NIAGARA SQUARE,BUFFALO,14202,NY,42.886641,-78.879354
WILLIAM L MARCY JR,DECORATIVE OBJECTS,PLAQUE,BRONZE,False,UNKNOWN,UNKNOWN,MARCY CASINO,199 LINCOLN PKWY,BUFFALO,14222,NY,42.931936,-78.873155
SURVEY RULER,DECORATIVE OBJECTS,ANTIQUE TOOL,WOOD,False,UNKNOWN,UNKNOWN,502 CITY HALL,65 NIAGARA SQUARE,BUFFALO,14202,NY,42.886641,-78.879354
FRANK CALLAHAN MEMORIAL,SCULPTURE,FIGURATIVE,COR-TEN STEEL AND BRONZE,False,HTTP://WWW.CITY-BUFFALO.COM/FILES/1_2_1/PUBLIC%20ART%20WEBSITE/WEB%20PAGES/FRANK%20CALLAHAN%20MEMORIAL.HTML,UNKNOWN,CAZENOVIA PARK,CAZENOVIA ST,BUFFALO,14220,NY,42.846737,-78.810073
CHRISTOPHER COLUMBUS,SCULPTURE,FIGURATIVE,BRONZE,False,HTTP://WWW.CITY-BUFFALO.COM/FILES/1_2_1/PUBLIC%20ART%20WEBSITE/WEB%20PAGES/COLUMBUS.HTML,UNKNOWN,COLUMBUS PARK,645 NIAGARA ST,BUFFALO,14201,NY,42.901121,-78.89306
BUFFALO STREET MAP,GRAPHIC ARTS,MAP,VELLUM PAPER,True,UNKNOWN,UNKNOWN,304 CITY HALL,65 NIAGARA SQUARE,BUFFALO,14202,NY,42.886641,-78.879354
POLISH-AMERICAN VETERANS MEMORIAL,SCULPTURE,RELIEF,GRANITE,False,HTTP://WWW.CITY-BUFFALO.COM/FILES/1_2_1/PUBLIC%20ART%20WEBSITE/WEB%20PAGES/POLISH-AMERICAN%20VETERANS%20MEMORIAL.HTML,H A GOMEZ AND MICAEL ANGELO,BUFFALO AND ERIE COUNTY NAVAL & MILITARY PARK,1 NAVAL PARK COVE,BUFFALO,14202,NY,42.878077,-78.880826
THE BATTLE WITHIN,SCULPTURE,RELIEF,COR-TEN STEEL,False,https://buffalonavalpark.org/wp-content/uploads/2019/04/The-Battle-Within-Buffalo-NY-1-730x488-450x301.png,J HULLEMERURCH,BUFFALO NAVAL PARK,72 MARINE DR,BUFFALO,14202,NY,42.878406,-78.8811441
CORONATION DAY,SCULPTURE,ABSTRACT,CHROME AND STEEL,False,HTTP://WWW.CITY-BUFFALO.COM/FILES/1_2_1/PUBLIC%20ART%20WEBSITE/WEB%20PAGES/CORONATION%20DAY.HTML,KENNETH SNELSON,BUFFALO CITY COURT BUILDING,50 DELAWARE AVE,BUFFALO,14202,NY,42.885709,-78.87959
